STARLINK-6097
1 57105U 23090E   26092.83335647  .00000339  00000+0  37653-4 0  9992
2 57105  43.0003 143.7439 0002079 255.5898  43.7238 15.05348748  5716
